XRISM                   
1 57800U 23137A   25355.35934583  .00004010  00000+0  23236-3 0  9999
2 57800  31.0028  69.8892 0007680 331.7046  28.3174 15.10412996125936
ACS3                    
1 59588U 24077B   25355.49094490  .00019999  00000+0  17023-1 0  9994
2 59588  97.2626 309.1413 0075735 316.8715  42.6529 13.85868840 83356
SZ-21 MODULE            
1 66515U 25246C   25355.10297298  .00021377  00000+0  23274-3 0  9990
2 66515  41.4772 325.0132 0005392 304.7401  55.2931 15.62895195  5757
