CCSDS_OMM_VERS = 2.0
CREATION_DATE  = 
ORIGINATOR     = 

OBJECT_NAME    = XRISM
OBJECT_ID      = 2023-137A
CENTER_NAME    = EARTH
REF_FRAME      = TEME
TIME_SYSTEM    = UTC
MEAN_ELEMENT_THEORY = SGP/SGP4

EPOCH          = 2025-12-21T08:37:27.478848
MEAN_MOTION    = 15.10412996
ECCENTRICITY   = .0007681
INCLINATION    = 31.0028
RA_OF_ASC_NODE = 69.8892
ARG_OF_PERICENTER = 331.7046
MEAN_ANOMALY   = 28.3174

EPHEMERIS_TYPE = 0
CLASSIFICATION_TYPE = U
NORAD_CAT_ID   = 57800
ELEMENT_SET_NO = 999
REV_AT_EPOCH   = 12593
BSTAR          = .23236E-3
MEAN_MOTION_DOT = .401E-4
MEAN_MOTION_DDOT = 0

CCSDS_OMM_VERS = 2.0
CREATION_DATE  = 
ORIGINATOR     = 

OBJECT_NAME    = ACS3
OBJECT_ID      = 2024-077B
CENTER_NAME    = EARTH
REF_FRAME      = TEME
TIME_SYSTEM    = UTC
MEAN_ELEMENT_THEORY = SGP/SGP4

EPOCH          = 2025-12-21T11:46:57.639360
MEAN_MOTION    = 13.85868840
ECCENTRICITY   = .0075736
INCLINATION    = 97.2626
RA_OF_ASC_NODE = 309.1413
ARG_OF_PERICENTER = 316.8715
MEAN_ANOMALY   = 42.6529

EPHEMERIS_TYPE = 0
CLASSIFICATION_TYPE = U
NORAD_CAT_ID   = 59588
ELEMENT_SET_NO = 999
REV_AT_EPOCH   = 8335
BSTAR          = .17023E-1
MEAN_MOTION_DOT = .19999E-3
MEAN_MOTION_DDOT = 0

CCSDS_OMM_VERS = 2.0
CREATION_DATE  = 
ORIGINATOR     = 

OBJECT_NAME    = SZ-21 MODULE
OBJECT_ID      = 2025-246C
CENTER_NAME    = EARTH
REF_FRAME      = TEME
TIME_SYSTEM    = UTC
MEAN_ELEMENT_THEORY = SGP/SGP4

EPOCH          = 2025-12-21T02:28:16.865472
MEAN_MOTION    = 15.62895195
ECCENTRICITY   = .00053926
INCLINATION    = 41.4772
RA_OF_ASC_NODE = 325.0132
ARG_OF_PERICENTER = 304.7401
MEAN_ANOMALY   = 55.2931

EPHEMERIS_TYPE = 0
CLASSIFICATION_TYPE = U
NORAD_CAT_ID   = 66515
ELEMENT_SET_NO = 999
REV_AT_EPOCH   = 575
BSTAR          = .23274036E-3
MEAN_MOTION_DOT = .21377E-3
MEAN_MOTION_DDOT = 0

